[{"OBJECT_NAME":"IRIDIUM 103","OBJECT_ID":"2017-003B","EPOCH":"2026-03-09T15:54:14.180832","MEAN_MOTION":14.34218399,"ECCENTRICITY":0.00020548,"INCLINATION":86.3981,"RA_OF_ASC_NODE":130.0732,"ARG_OF_PERICENTER":88.2192,"MEAN_ANOMALY":271.9239,"EPHEMERIS_TYPE":0,"CLASSIFICATION_TYPE":"U","NORAD_CAT_ID":41918,"ELEMENT_SET_NO":999,"REV_AT_EPOCH":47896,"BSTAR":3.8019926e-5,"MEAN_MOTION_DOT":1.26e-6,"MEAN_MOTION_DDOT":0},{"OBJECT_NAME":"COSMOS 1275 DEB","OBJECT_ID":"1981-053QA","EPOCH":"2026-03-08T07:20:28.578912","MEAN_MOTION":14.40023463,"ECCENTRICITY":0.00318045,"INCLINATION":82.8159,"RA_OF_ASC_NODE":14.7821,"ARG_OF_PERICENTER":250.0879,"MEAN_ANOMALY":262.2095,"EPHEMERIS_TYPE":0,"CLASSIFICATION_TYPE":"U","NORAD_CAT_ID":42114,"ELEMENT_SET_NO":999,"REV_AT_EPOCH":63658,"BSTAR":0.0043623835,"MEAN_MOTION_DOT":0.00013858,"MEAN_MOTION_DDOT":0}]
